start=new Date('2023-01-21T00:00:00.000Z').valueOf();
sats=[{"EPOCH":"2023-01-20T20:28:24.847968","MEAN_MOTION_DOT":"-0.00000208","INCLINATION":"53.2172","CLASSIFICATION_TYPE":"U","TIME_SYSTEM":"UTC","ARG_OF_PERICENTER":"62.4566","MEAN_MOTION":"15.08843881","ECCENTRICITY":"0.00027250","TLE_LINE1":"1 53015U 22076AF  23020.85306537 -.00000208  00000-0  50590-5 0  9990","SITE":"AFETR","MEAN_MOTION_DDOT":"0.0000000000000","MEAN_ANOMALY":"297.6703","GP_ID":"223556386","DECAY_DATE":null,"REV_AT_EPOCH":"3077","BSTAR":"0.00000505900000","PERIAPSIS":"537.848","ELEMENT_SET_NO":"999","FILE":"3756250","OBJECT_NAME":"STARLINK-4262","APOAPSIS":"541.619","TLE_LINE2":"2 53015  53.2172 179.0138 0002725  62.4566 297.6703 15.08843881 30777","OBJECT_TYPE":"PAYLOAD","NORAD_CAT_ID":"53015","MEAN_ELEMENT_THEORY":"SGP4","REF_FRAME":"TEME","OBJECT_ID":"2022-076AF","SEMIMAJOR_AXIS":"6917.869","CENTER_NAME":"EARTH","RA_OF_ASC_NODE":"179.0138","EPHEMERIS_TYPE":"0","COUNTRY_CODE":"US","PERIOD":"95.437","RCS_SIZE":"LARGE","LAUNCH_DATE":"2022-07-07"},{"MEAN_ELEMENT_THEORY":"SGP4","REF_FRAME":"TEME","TLE_LINE2":"2 53016  53.2139 179.5505 0001991  61.1241 298.9951 15.08803837 30758","OBJECT_TYPE":"PAYLOAD","NORAD_CAT_ID":"53016","OBJECT_NAME":"STARLINK-4283","APOAPSIS":"541.233","PERIOD":"95.440","LAUNCH_DATE":"2022-07-07","RCS_SIZE":"LARGE","EPHEMERIS_TYPE":"0","COUNTRY_CODE":"US","OBJECT_ID":"2022-076AG","SEMIMAJOR_AXIS":"6917.991","CENTER_NAME":"EARTH","RA_OF_ASC_NODE":"179.5505","ECCENTRICITY":"0.00019910","MEAN_MOTION":"15.08803837","TLE_LINE1":"1 53016U 22076AG  23020.73166364 -.00003603  00000-0 -20860-3 0  9998","INCLINATION":"53.2139","TIME_SYSTEM":"UTC","CLASSIFICATION_TYPE":"U","ARG_OF_PERICENTER":"61.1241","EPOCH":"2023-01-20T17:33:35.738496","MEAN_MOTION_DOT":"-0.00003603","DECAY_DATE":null,"REV_AT_EPOCH":"3075","BSTAR":"-0.00020860000000","PERIAPSIS":"538.479","ELEMENT_SET_NO":"999","FILE":"3756036","MEAN_ANOMALY":"298.9951","GP_ID":"223551667","SITE":"AFETR","MEAN_MOTION_DDOT":"0.0000000000000"},{"LAUNCH_DATE":"2022-07-07","RCS_SIZE":"LARGE","PERIOD":"95.437","COUNTRY_CODE":"US","EPHEMERIS_TYPE":"0","RA_OF_ASC_NODE":"179.6166","CENTER_NAME":"EARTH","OBJECT_ID":"2022-076AH","SEMIMAJOR_AXIS":"6917.843","REF_FRAME":"TEME","MEAN_ELEMENT_THEORY":"SGP4","NORAD_CAT_ID":"53017","OBJECT_TYPE":"PAYLOAD","TLE_LINE2":"2 53017  53.2162 179.6166 0001470  93.2879 266.8281 15.08852249 30755","APOAPSIS":"540.725","OBJECT_NAME":"STARLINK-4281","FILE":"3756057","ELEMENT_SET_NO":"999","PERIAPSIS":"538.691","BSTAR":"0.00014345000000","REV_AT_EPOCH":"3075","DECAY_DATE":null,"GP_ID":"223551678","MEAN_ANOMALY":"266.8281","MEAN_MOTION_DDOT":"0.0000000000000","SITE":"AFETR","TLE_LINE1":"1 53017U 22076AH  23020.71689729  .00001997  00000-0  14345-3 0  9995","ECCENTRICITY":"0.00014700","MEAN_MOTION":"15.08852249","TIME_SYSTEM":"UTC","CLASSIFICATION_TYPE":"U","ARG_OF_PERICENTER":"93.2879","INCLINATION":"53.2162","MEAN_MOTION_DOT":"0.00001997","EPOCH":"2023-01-20T17:12:19.925856"},{"FILE":"3755973","ELEMENT_SET_NO":"999","BSTAR":"-0.00001917700000","PERIAPSIS":"538.483","DECAY_DATE":null,"REV_AT_EPOCH":"3023","MEAN_MOTION_DDOT":"0.0000000000000","SITE":"AFETR","GP_ID":"223548360","MEAN_ANOMALY":"287.1800","TLE_LINE1":"1 53018U 22076AJ  23020.39771416 -.00000593  00000-0 -19177-4 0  9997","MEAN_MOTION":"15.08829972","ECCENTRICITY":"0.00018690","MEAN_MOTION_DOT":"-0.00000593","EPOCH":"2023-01-20T09:32:42.503424","CLASSIFICATION_TYPE":"U","TIME_SYSTEM":"UTC","ARG_OF_PERICENTER":"72.9397","INCLINATION":"53.2141","RCS_SIZE":"LARGE","LAUNCH_DATE":"2022-07-07","PERIOD":"95.438","RA_OF_ASC_NODE":"181.0488","CENTER_NAME":"EARTH","SEMIMAJOR_AXIS":"6917.911","OBJECT_ID":"2022-076AJ","COUNTRY_CODE":"US","EPHEMERIS_TYPE":"0","NORAD_CAT_ID":"53018","OBJECT_TYPE":"PAYLOAD","TLE_LINE2":"2 53018  53.2141 181.0488 0001869  72.9397 287.1800 15.08829972 30231","REF_FRAME":"TEME","MEAN_ELEMENT_THEORY":"SGP4","APOAPSIS":"541.069","OBJECT_NAME":"STARLINK-4279"},{"RA_OF_ASC_NODE":"179.0538","SEMIMAJOR_AXIS":"6917.855","OBJECT_ID":"2022-076AK","CENTER_NAME":"EARTH","COUNTRY_CODE":"US","EPHEMERIS_TYPE":"0","RCS_SIZE":"LARGE","LAUNCH_DATE":"2022-07-07","PERIOD":"95.437","OBJECT_NAME":"STARLINK-4282","APOAPSIS":"541.094","TLE_LINE2":"2 53019  53.2183 179.0538 0001986  84.2135 275.9084 15.08848261 30777","OBJECT_TYPE":"PAYLOAD","NORAD_CAT_ID":"53019","MEAN_ELEMENT_THEORY":"SGP4","REF_FRAME":"TEME","MEAN_MOTION_DDOT":"0.0000000000000","SITE":"AFETR","MEAN_ANOMALY":"275.9084","GP_ID":"223556712","ELEMENT_SET_NO":"999","FILE":"3756250","DECAY_DATE":null,"REV_AT_EPOCH":"3077","BSTAR":"0.00009743300000","PERIAPSIS":"538.346","MEAN_MOTION_DOT":"0.00001263","EPOCH":"2023-01-20T20:12:30.906432","INCLINATION":"53.2183","ARG_OF_PERICENTER":"84.2135","CLASSIFICATION_TYPE":"U","TIME_SYSTEM":"UTC","TLE_LINE1":"1 53019U 22076AK  23020.84202438  .00001263  00000-0  97433-4 0  9995","ECCENTRICITY":"0.00019860","MEAN_MOTION":"15.08848261"},{"OBJECT_NAME":"STARLINK-4287","APOAPSIS":"540.845","MEAN_ELEMENT_THEORY":"SGP4","REF_FRAME":"TEME","TLE_LINE2":"2 53020  53.2159 178.6938 0001654  67.8611 292.2557 15.08854533 30786","OBJECT_TYPE":"PAYLOAD","NORAD_CAT_ID":"53020","EPHEMERIS_TYPE":"0","COUNTRY_CODE":"US","SEMIMAJOR_AXIS":"6917.836","OBJECT_ID":"2022-076AL","CENTER_NAME":"EARTH","RA_OF_ASC_NODE":"178.6938","PERIOD":"95.437","LAUNCH_DATE":"2022-07-07","RCS_SIZE":"LARGE","INCLINATION":"53.2159","CLASSIFICATION_TYPE":"U","TIME_SYSTEM":"UTC","ARG_OF_PERICENTER":"67.8611","EPOCH":"2023-01-20T22:09:05.397696","MEAN_MOTION_DOT":"0.00001104","MEAN_MOTION":"15.08854533","ECCENTRICITY":"0.00016540","TLE_LINE1":"1 53020U 22076AL  23020.92297914  .00001104  00000-0  87405-4 0  9991","MEAN_ANOMALY":"292.2557","GP_ID":"223556723","SITE":"AFETR","MEAN_MOTION_DDOT":"0.0000000000000","DECAY_DATE":null,"REV_AT_EPOCH":"3078","BSTAR":"0.00008740500000","PERIAPSIS":"538.557","ELEMENT_SET_NO":"999","FILE":"3756250"},{"CENTER_NAME":"EARTH","OBJECT_ID":"2022-076AM","SEMIMAJOR_AXIS":"6917.837","RA_OF_ASC_NODE":"179.0881","EPHEMERIS_TYPE":"0","COUNTRY_CODE":"US","PERIOD":"95.437","LAUNCH_DATE":"2022-07-07","RCS_SIZE":"LARGE","APOAPSIS":"540.862","OBJECT_NAME":"STARLINK-4203","NORAD_CAT_ID":"53021","TLE_LINE2":"2 53021  53.2177 179.0881 0001678  67.7003 292.4167 15.08854339 30771","OBJECT_TYPE":"PAYLOAD","REF_FRAME":"TEME","MEAN_ELEMENT_THEORY":"SGP4","SITE":"AFETR","MEAN_MOTION_DDOT":"0.0000000000000","GP_ID":"223556389","MEAN_ANOMALY":"292.4167","BSTAR":"0.00023816000000","PERIAPSIS":"538.541","DECAY_DATE":null,"REV_AT_EPOCH":"3077","FILE":"3756250","ELEMENT_SET_NO":"999","EPOCH":"2023-01-20T20:01:54.845184","MEAN_MOTION_DOT":"0.00003506","ARG_OF_PERICENTER":"67.7003","CLASSIFICATION_TYPE":"U","TIME_SYSTEM":"UTC","INCLINATION":"53.2177","MEAN_MOTION":"15.08854339","ECCENTRICITY":"0.00016780","TLE_LINE1":"1 53021U 22076AM  23020.83466256  .00003506  00000-0  23816-3 0  9992"},{"TLE_LINE1":"1 53022U 22076AN  23020.64698543  .00001703  00000-0  12505-3 0  9998","MEAN_MOTION":"15.08847759","ECCENTRICITY":"0.00028200","INCLINATION":"53.2167","ARG_OF_PERICENTER":"60.3191","CLASSIFICATION_TYPE":"U","TIME_SYSTEM":"UTC","MEAN_MOTION_DOT":"0.00001703","EPOCH":"2023-01-20T15:31:39.541152","ELEMENT_SET_NO":"999","FILE":"3756250","REV_AT_EPOCH":"3074","DECAY_DATE":null,"BSTAR":"0.00012505000000","PERIAPSIS":"537.771","MEAN_ANOMALY":"299.8081","GP_ID":"223556711","MEAN_MOTION_DDOT":"0.0000000000000","SITE":"AFETR","MEAN_ELEMENT_THEORY":"SGP4","REF_FRAME":"TEME","TLE_LINE2":"2 53022  53.2167 179.9311 0002820  60.3191 299.8081 15.08847759 30746","OBJECT_TYPE":"PAYLOAD","NORAD_CAT_ID":"53022","OBJECT_NAME":"STARLINK-4216","APOAPSIS":"541.673","RCS_SIZE":"LARGE","LAUNCH_DATE":"2022-07-07","PERIOD":"95.437","COUNTRY_CODE":"US","EPHEMERIS_TYPE":"0","RA_OF_ASC_NODE":"179.9311","OBJECT_ID":"2022-076AN","SEMIMAJOR_AXIS":"6917.857","CENTER_NAME":"EARTH"},{"OBJECT_NAME":"STARLINK-4284","APOAPSIS":"540.632","MEAN_ELEMENT_THEORY":"SGP4","REF_FRAME":"TEME","TLE_LINE2":"2 53023  53.2179 179.1070 0001347  98.8927 261.2218 15.08854764 30772","OBJECT_TYPE":"PAYLOAD","NORAD_CAT_ID":"53023","COUNTRY_CODE":"US","EPHEMERIS_TYPE":"0","RA_OF_ASC_NODE":"179.1070","OBJECT_ID":"2022-076AP","SEMIMAJOR_AXIS":"6917.835","CENTER_NAME":"EARTH","RCS_SIZE":"LARGE","LAUNCH_DATE":"2022-07-07","PERIOD":"95.437","INCLINATION":"53.2179","TIME_SYSTEM":"UTC","CLASSIFICATION_TYPE":"U","ARG_OF_PERICENTER":"98.8927","MEAN_MOTION_DOT":"0.00001106","EPOCH":"2023-01-20T19:52:41.397024","TLE_LINE1":"1 53023U 22076AP  23020.82825691  .00001106  00000-0  87505-4 0  9995","ECCENTRICITY":"0.00013470","MEAN_MOTION":"15.08854764","MEAN_ANOMALY":"261.2218","GP_ID":"223556714","MEAN_MOTION_DDOT":"0.0000000000000","SITE":"AFETR","ELEMENT_SET_NO":"999","FILE":"3756250","DECAY_DATE":null,"REV_AT_EPOCH":"3077","PERIAPSIS":"538.768","BSTAR":"0.00008750500000"},{"COUNTRY_CODE":"US","EPHEMERIS_TYPE":"0","RA_OF_ASC_NODE":"182.0684","SEMIMAJOR_AXIS":"6917.859","OBJECT_ID":"2022-076AQ","CENTER_NAME":"EARTH","LAUNCH_DATE":"2022-07-07","RCS_SIZE":"LARGE","PERIOD":"95.437","OBJECT_NAME":"STARLINK-4289","APOAPSIS":"541.224","MEAN_ELEMENT_THEORY":"SGP4","REF_FRAME":"TEME","OBJECT_TYPE":"PAYLOAD","TLE_LINE2":"2 53024  53.2174 182.0684 0002168  55.8564 304.2634 15.08846929 30206","NORAD_CAT_ID":"53024","MEAN_ANOMALY":"304.2634","GP_ID":"223547360","MEAN_MOTION_DDOT":"0.0000000000000","SITE":"AFETR","ELEMENT_SET_NO":"999","FILE":"3755973","REV_AT_EPOCH":"3020","DECAY_DATE":null,"BSTAR":"0.00014246000000","PERIAPSIS":"538.224","INCLINATION":"53.2174","ARG_OF_PERICENTER":"55.8564","CLASSIFICATION_TYPE":"U","TIME_SYSTEM":"UTC","MEAN_MOTION_DOT":"0.00001980","EPOCH":"2023-01-20T04:02:46.057632","TLE_LINE1":"1 53024U 22076AQ  23020.16858863  .00001980  00000-0  14246-3 0  9991","MEAN_MOTION":"15.08846929","ECCENTRICITY":"0.00021680"}];
